COSMOS 1933             
1 18958U 88020A   26048.09021520  .00005010  00000+0  24645-3 0  9997
2 18958  82.5109 271.2951 0002653 276.6134  83.4798 15.17799566 47107
SL-3 R/B                
1 19046U 88032B   26048.12418730  .00006578  00000+0  30944-3 0  9995
2 19046  97.5156  31.4570 0024568 308.7413  51.1625 15.19642138 48985
SL-16 R/B               
1 19120U 88039B   26048.19380748  .00000106  00000+0  72995-4 0  9993
2 19120  71.0140 111.8897 0021504   5.3020 354.8329 14.19613579955475
COSMOS 1953             
1 19210U 88050A   26047.87039179  .00010092  00000+0  36643-3 0  9993
2 19210  82.5104 179.1733 0011110 192.5730 167.5234 15.28109764 34601
SL-8 R/B                
1 19257U 88053B   26048.20713289  .00000263  00000+0  93693-4 0  9994
2 19257  74.0483 150.2180 0020809 332.9794  41.6870 14.38903182973650
COSMOS 1975             
1 19573U 88093A   26047.70184169  .00009114  00000+0  33497-3 0  9991
2 19573  82.5225 138.7431 0010477 240.5312 119.4883 15.27707920 16207
SL-14 R/B               
1 19574U 88093B   26048.12066022  .00000545  00000+0  59859-4 0  9996
2 19574  82.5278  61.3577 0022291 105.1828 321.0556 14.85631866997982
SL-16 R/B               
1 19650U 88102B   26047.92633582  .00000099  00000+0  74138-4 0  9991
2 19650  70.9991 195.1810 0012874  34.5402 325.6555 14.16151790923957
INTERCOSMOS 24          
1 20261U 89080A   26048.15128063  .00000629  00000+0  18396-3 0  9998
2 20261  82.6054 117.7750 1187508 340.5282  15.3836 12.59527462664218
SL-14 R/B               
1 20262U 89080C   26047.83091212  .00000561  00000+0  16910-3 0  9993
2 20262  82.5956 186.5746 1229668 232.4371 115.8738 12.50466256657549
DELTA 1 R/B             
1 20323U 89089B   26048.13476125  .00000398  00000+0  10712-3 0  9996
2 20323  97.0720 258.8406 0068865 186.4322 173.5999 14.50645885892759
ARIANE 40 R/B           
1 20443U 90005H   26048.17457252  .00000306  00000+0  11089-3 0  9990
2 20443  98.3129 109.4426 0008898 265.1465  94.8708 14.39856604889855
