CCSDS_OMM_VERS = 2.0
CREATION_DATE  = 
ORIGINATOR     = 

OBJECT_NAME    = COSMOS 1933
OBJECT_ID      = 1988-020A
CENTER_NAME    = EARTH
REF_FRAME      = TEME
TIME_SYSTEM    = UTC
MEAN_ELEMENT_THEORY = SGP/SGP4

EPOCH          = 2026-02-17T02:09:54.593280
MEAN_MOTION    = 15.17799566
ECCENTRICITY   = .0002653
INCLINATION    = 82.5109
RA_OF_ASC_NODE = 271.2951
ARG_OF_PERICENTER = 276.6134
MEAN_ANOMALY   = 83.4798

EPHEMERIS_TYPE = 0
CLASSIFICATION_TYPE = U
NORAD_CAT_ID   = 18958
ELEMENT_SET_NO = 999
REV_AT_EPOCH   = 4710
BSTAR          = .24645E-3
MEAN_MOTION_DOT = .501E-4
MEAN_MOTION_DDOT = 0

CCSDS_OMM_VERS = 2.0
CREATION_DATE  = 
ORIGINATOR     = 

OBJECT_NAME    = SL-3 R/B
OBJECT_ID      = 1988-032B
CENTER_NAME    = EARTH
REF_FRAME      = TEME
TIME_SYSTEM    = UTC
MEAN_ELEMENT_THEORY = SGP/SGP4

EPOCH          = 2026-02-17T02:58:49.782720
MEAN_MOTION    = 15.19642138
ECCENTRICITY   = .0024568
INCLINATION    = 97.5156
RA_OF_ASC_NODE = 31.4570
ARG_OF_PERICENTER = 308.7413
MEAN_ANOMALY   = 51.1625

EPHEMERIS_TYPE = 0
CLASSIFICATION_TYPE = U
NORAD_CAT_ID   = 19046
ELEMENT_SET_NO = 999
REV_AT_EPOCH   = 4898
BSTAR          = .30944E-3
MEAN_MOTION_DOT = .6578E-4
MEAN_MOTION_DDOT = 0

CCSDS_OMM_VERS = 2.0
CREATION_DATE  = 
ORIGINATOR     = 

OBJECT_NAME    = SL-16 R/B
OBJECT_ID      = 1988-039B
CENTER_NAME    = EARTH
REF_FRAME      = TEME
TIME_SYSTEM    = UTC
MEAN_ELEMENT_THEORY = SGP/SGP4

EPOCH          = 2026-02-17T04:39:04.966272
MEAN_MOTION    = 14.19613579
ECCENTRICITY   = .0021504
INCLINATION    = 71.0140
RA_OF_ASC_NODE = 111.8897
ARG_OF_PERICENTER = 5.3020
MEAN_ANOMALY   = 354.8329

EPHEMERIS_TYPE = 0
CLASSIFICATION_TYPE = U
NORAD_CAT_ID   = 19120
ELEMENT_SET_NO = 999
REV_AT_EPOCH   = 95547
BSTAR          = .72995E-4
MEAN_MOTION_DOT = .106E-5
MEAN_MOTION_DDOT = 0

CCSDS_OMM_VERS = 2.0
CREATION_DATE  = 
ORIGINATOR     = 

OBJECT_NAME    = COSMOS 1953
OBJECT_ID      = 1988-050A
CENTER_NAME    = EARTH
REF_FRAME      = TEME
TIME_SYSTEM    = UTC
MEAN_ELEMENT_THEORY = SGP/SGP4

EPOCH          = 2026-02-16T20:53:21.850656
MEAN_MOTION    = 15.28109764
ECCENTRICITY   = .001111
INCLINATION    = 82.5104
RA_OF_ASC_NODE = 179.1733
ARG_OF_PERICENTER = 192.5730
MEAN_ANOMALY   = 167.5234

EPHEMERIS_TYPE = 0
CLASSIFICATION_TYPE = U
NORAD_CAT_ID   = 19210
ELEMENT_SET_NO = 999
REV_AT_EPOCH   = 3460
BSTAR          = .36643E-3
MEAN_MOTION_DOT = .10092E-3
MEAN_MOTION_DDOT = 0

CCSDS_OMM_VERS = 2.0
CREATION_DATE  = 
ORIGINATOR     = 

OBJECT_NAME    = SL-8 R/B
OBJECT_ID      = 1988-053B
CENTER_NAME    = EARTH
REF_FRAME      = TEME
TIME_SYSTEM    = UTC
MEAN_ELEMENT_THEORY = SGP/SGP4

EPOCH          = 2026-02-17T04:58:16.281696
MEAN_MOTION    = 14.38903182
ECCENTRICITY   = .0020809
INCLINATION    = 74.0483
RA_OF_ASC_NODE = 150.2180
ARG_OF_PERICENTER = 332.9794
MEAN_ANOMALY   = 41.6870

EPHEMERIS_TYPE = 0
CLASSIFICATION_TYPE = U
NORAD_CAT_ID   = 19257
ELEMENT_SET_NO = 999
REV_AT_EPOCH   = 97365
BSTAR          = .93693E-4
MEAN_MOTION_DOT = .263E-5
MEAN_MOTION_DDOT = 0

CCSDS_OMM_VERS = 2.0
CREATION_DATE  = 
ORIGINATOR     = 

OBJECT_NAME    = COSMOS 1975
OBJECT_ID      = 1988-093A
CENTER_NAME    = EARTH
REF_FRAME      = TEME
TIME_SYSTEM    = UTC
MEAN_ELEMENT_THEORY = SGP/SGP4

EPOCH          = 2026-02-16T16:50:39.122016
MEAN_MOTION    = 15.27707920
ECCENTRICITY   = .0010477
INCLINATION    = 82.5225
RA_OF_ASC_NODE = 138.7431
ARG_OF_PERICENTER = 240.5312
MEAN_ANOMALY   = 119.4883

EPHEMERIS_TYPE = 0
CLASSIFICATION_TYPE = U
NORAD_CAT_ID   = 19573
ELEMENT_SET_NO = 999
REV_AT_EPOCH   = 1620
BSTAR          = .33497E-3
MEAN_MOTION_DOT = .9114E-4
MEAN_MOTION_DDOT = 0

CCSDS_OMM_VERS = 2.0
CREATION_DATE  = 
ORIGINATOR     = 

OBJECT_NAME    = SL-14 R/B
OBJECT_ID      = 1988-093B
CENTER_NAME    = EARTH
REF_FRAME      = TEME
TIME_SYSTEM    = UTC
MEAN_ELEMENT_THEORY = SGP/SGP4

EPOCH          = 2026-02-17T02:53:45.043008
MEAN_MOTION    = 14.85631866
ECCENTRICITY   = .0022291
INCLINATION    = 82.5278
RA_OF_ASC_NODE = 61.3577
ARG_OF_PERICENTER = 105.1828
MEAN_ANOMALY   = 321.0556

EPHEMERIS_TYPE = 0
CLASSIFICATION_TYPE = U
NORAD_CAT_ID   = 19574
ELEMENT_SET_NO = 999
REV_AT_EPOCH   = 99798
BSTAR          = .59859E-4
MEAN_MOTION_DOT = .545E-5
MEAN_MOTION_DDOT = 0

CCSDS_OMM_VERS = 2.0
CREATION_DATE  = 
ORIGINATOR     = 

OBJECT_NAME    = SL-16 R/B
OBJECT_ID      = 1988-102B
CENTER_NAME    = EARTH
REF_FRAME      = TEME
TIME_SYSTEM    = UTC
MEAN_ELEMENT_THEORY = SGP/SGP4

EPOCH          = 2026-02-16T22:13:55.414848
MEAN_MOTION    = 14.16151790
ECCENTRICITY   = .0012874
INCLINATION    = 70.9991
RA_OF_ASC_NODE = 195.1810
ARG_OF_PERICENTER = 34.5402
MEAN_ANOMALY   = 325.6555

EPHEMERIS_TYPE = 0
CLASSIFICATION_TYPE = U
NORAD_CAT_ID   = 19650
ELEMENT_SET_NO = 999
REV_AT_EPOCH   = 92395
BSTAR          = .74138E-4
MEAN_MOTION_DOT = .99E-6
MEAN_MOTION_DDOT = 0

CCSDS_OMM_VERS = 2.0
CREATION_DATE  = 
ORIGINATOR     = 

OBJECT_NAME    = INTERCOSMOS 24
OBJECT_ID      = 1989-080A
CENTER_NAME    = EARTH
REF_FRAME      = TEME
TIME_SYSTEM    = UTC
MEAN_ELEMENT_THEORY = SGP/SGP4

EPOCH          = 2026-02-17T03:37:50.646432
MEAN_MOTION    = 12.59527462
ECCENTRICITY   = .1187508
INCLINATION    = 82.6054
RA_OF_ASC_NODE = 117.7750
ARG_OF_PERICENTER = 340.5282
MEAN_ANOMALY   = 15.3836

EPHEMERIS_TYPE = 0
CLASSIFICATION_TYPE = U
NORAD_CAT_ID   = 20261
ELEMENT_SET_NO = 999
REV_AT_EPOCH   = 66421
BSTAR          = .18396E-3
MEAN_MOTION_DOT = .629E-5
MEAN_MOTION_DDOT = 0

CCSDS_OMM_VERS = 2.0
CREATION_DATE  = 
ORIGINATOR     = 

OBJECT_NAME    = SL-14 R/B
OBJECT_ID      = 1989-080C
CENTER_NAME    = EARTH
REF_FRAME      = TEME
TIME_SYSTEM    = UTC
MEAN_ELEMENT_THEORY = SGP/SGP4

EPOCH          = 2026-02-16T19:56:30.807168
MEAN_MOTION    = 12.50466256
ECCENTRICITY   = .1229668
INCLINATION    = 82.5956
RA_OF_ASC_NODE = 186.5746
ARG_OF_PERICENTER = 232.4371
MEAN_ANOMALY   = 115.8738

EPHEMERIS_TYPE = 0
CLASSIFICATION_TYPE = U
NORAD_CAT_ID   = 20262
ELEMENT_SET_NO = 999
REV_AT_EPOCH   = 65754
BSTAR          = .1691E-3
MEAN_MOTION_DOT = .561E-5
MEAN_MOTION_DDOT = 0

CCSDS_OMM_VERS = 2.0
CREATION_DATE  = 
ORIGINATOR     = 

OBJECT_NAME    = DELTA 1 R/B
OBJECT_ID      = 1989-089B
CENTER_NAME    = EARTH
REF_FRAME      = TEME
TIME_SYSTEM    = UTC
MEAN_ELEMENT_THEORY = SGP/SGP4

EPOCH          = 2026-02-17T03:14:03.372000
MEAN_MOTION    = 14.50645885
ECCENTRICITY   = .0068865
INCLINATION    = 97.0720
RA_OF_ASC_NODE = 258.8406
ARG_OF_PERICENTER = 186.4322
MEAN_ANOMALY   = 173.5999

EPHEMERIS_TYPE = 0
CLASSIFICATION_TYPE = U
NORAD_CAT_ID   = 20323
ELEMENT_SET_NO = 999
REV_AT_EPOCH   = 89275
BSTAR          = .10712E-3
MEAN_MOTION_DOT = .398E-5
MEAN_MOTION_DDOT = 0

CCSDS_OMM_VERS = 2.0
CREATION_DATE  = 
ORIGINATOR     = 

OBJECT_NAME    = ARIANE 40 R/B
OBJECT_ID      = 1990-005H
CENTER_NAME    = EARTH
REF_FRAME      = TEME
TIME_SYSTEM    = UTC
MEAN_ELEMENT_THEORY = SGP/SGP4

EPOCH          = 2026-02-17T04:11:23.065728
MEAN_MOTION    = 14.39856604
ECCENTRICITY   = .0008898
INCLINATION    = 98.3129
RA_OF_ASC_NODE = 109.4426
ARG_OF_PERICENTER = 265.1465
MEAN_ANOMALY   = 94.8708

EPHEMERIS_TYPE = 0
CLASSIFICATION_TYPE = U
NORAD_CAT_ID   = 20443
ELEMENT_SET_NO = 999
REV_AT_EPOCH   = 88985
BSTAR          = .11089E-3
MEAN_MOTION_DOT = .306E-5
MEAN_MOTION_DDOT = 0

